OBJECT_NAME,OBJECT_ID,EPOCH,MEAN_MOTION,ECCENTRICITY,INCLINATION,RA_OF_ASC_NODE,ARG_OF_PERICENTER,MEAN_ANOMALY,EPHEMERIS_TYPE,CLASSIFICATION_TYPE,NORAD_CAT_ID,ELEMENT_SET_NO,REV_AT_EPOCH,BSTAR,MEAN_MOTION_DOT,MEAN_MOTION_DDOT
STARLINK-36520,2026-008X,2026-07-16T08:09:54.632160,15.27594743,.0001624,43.0004,199.0210,280.8247,79.2422,0,U,67466,999,2924,.21594E-3,.5687E-4,0
STARLINK-36425,2026-008Y,2026-07-16T11:08:58.267392,15.27588195,.0001504,43.0008,198.2431,268.4239,91.6440,0,U,67467,999,2926,.27699E-3,.737E-4,0
STARLINK-36414,2026-008Z,2026-07-16T08:35:36.353760,15.27580592,.0001121,42.9983,198.2749,280.0198,80.0527,0,U,67468,999,2925,.20432E-3,.5365E-4,0
STARLINK-36441,2026-008AA,2026-07-16T08:06:12.420864,15.27590331,.0002029,43.0000,198.9937,285.7314,74.3314,0,U,67469,999,2924,.33185E-3,.8883E-4,0
STARLINK-36454,2026-008AB,2026-07-16T11:55:01.527744,15.27580254,.0001287,42.9989,197.5950,272.1048,87.9656,0,U,67470,999,2927,.25201E-3,.6679E-4,0
STARLINK-36334,2026-008AC,2026-07-16T06:41:18.142080,15.27588095,.00021,42.9999,199.4056,283.6402,76.4216,0,U,67471,999,2923,.31153E-3,.8322E-4,0
STARLINK-36269,2026-008AD,2026-07-16T09:29:15.540864,15.27590253,.0002174,43.0026,198.5647,288.9202,71.1414,0,U,67472,999,2925,.27754E-3,.7385E-4,0
STARLINK-36408,2026-008AE,2026-07-16T01:27:22.602528,15.27585404,.00010989,42.9998,200.3468,266.3338,93.7388,0,U,67473,999,2920,.30373616E-3,.8107E-4,0
ALSAT-3A,2026-009A,2026-07-16T19:33:57.117888,15.23128879,.0010294,97.4534,271.4933,15.6524,344.5029,0,U,67474,999,2778,.12582E-3,.2902E-4,0
TIANQI-37,2026-010A,2026-07-16T15:59:09.179808,13.99174707,.0011207,44.9831,310.5759,111.0696,249.1335,0,U,67476,999,2552,.88592E-4,.1E-7,0
TIANQI-38,2026-010B,2026-07-16T18:59:43.033056,13.99170256,.0010008,44.9794,309.7829,119.6850,240.4980,0,U,67477,999,2554,.95635E-4,.11E-6,0
TIANQI-39,2026-010C,2026-07-16T15:10:32.187936,13.99221061,.0013784,44.9806,306.6678,134.2364,225.9603,0,U,67478,999,2557,.90302E-4,.3E-7,0
TIANQI-40,2026-010D,2026-07-16T14:43:05.339136,13.99157418,.0010099,44.9840,311.0154,125.6474,234.5300,0,U,67479,999,2551,.84295E-4,-.6E-7,0
SZ-20 MODULE,2025-082C,2026-07-16T20:27:38.345760,15.70489826,.0013387,41.4764,133.3475,219.8065,140.1796,0,U,67481,999,29789,.14639E-3,.18271E-3,0
2025-313BE,2025-313BE,2026-07-16T04:24:53.806176,15.61714418,.00117943,97.3838,275.7003,224.4296,135.6016,0,U,67482,999,2778,.18743951E-2,.165046E-2,0
ION SCV-021,2025-276DT,2026-07-16T15:28:01.624800,14.97610969,.0011765,97.5233,267.0203,28.1187,332.0669,0,U,67483,999,2701,.20431E-4,.183E-5,0
STARLINK-36551,2026-012A,2026-07-16T14:32:50.009568,15.27589395,.0001427,43.0018,306.7321,290.3566,69.7133,0,U,67493,999,2747,.30134E-3,.8041E-4,0
STARLINK-36396,2026-012B,2026-07-16T07:48:25.818048,15.27616376,.0001568,43.0015,308.0851,288.9202,71.1479,0,U,67494,999,2743,.38554E-3,.10374E-3,0
STARLINK-36550,2026-012C,2026-07-16T15:55:53.148576,15.27596313,.0001583,43.0020,306.3092,272.4907,87.5763,0,U,67495,999,2748,.22611E-3,.5968E-4,0
STARLINK-36534,2026-012D,2026-07-16T15:46:37.915392,15.27593530,.0001647,43.0014,306.2555,267.2202,92.8461,0,U,67496,999,2748,.3548E-3,.9518E-4,0
STARLINK-36555,2026-012E,2026-07-16T15:50:19.958208,15.27593010,.0001716,43.0007,306.2728,270.2244,89.8411,0,U,67497,999,2748,.32282E-3,.8635E-4,0
STARLINK-36081,2026-012F,2026-07-16T07:50:18.240000,15.27583403,.0001218,42.9950,308.0729,258.9742,101.0972,0,U,67498,999,2743,.17908E-3,.467E-4,0
STARLINK-36558,2026-012G,2026-07-16T15:35:31.966656,15.27594864,.0002028,43.0009,306.2062,283.6705,76.3921,0,U,67499,999,2748,.38379E-3,.10319E-3,0
STARLINK-36557,2026-012H,2026-07-16T15:29:58.428096,15.27602815,.000231,43.0000,306.1616,267.1879,92.8708,0,U,67500,999,2748,.24458E-3,.6479E-4,0
STARLINK-36433,2026-012J,2026-07-16T15:24:25.706016,15.27593395,.0001535,43.0022,306.1335,266.5047,93.5629,0,U,67501,999,2748,.32733E-3,.876E-4,0
STARLINK-36554,2026-012K,2026-07-16T15:15:10.511712,15.27590625,.0002321,43.0018,306.0839,276.5989,83.4599,0,U,67502,999,2748,.36142E-3,.97E-4,0
STARLINK-36552,2026-012L,2026-07-16T18:17:56.061024,15.27600550,.0003906,43.0069,305.3187,303.9462,56.1018,0,U,67503,999,2750,.40586E-3,.10931E-3,0
STARLINK-36512,2026-012M,2026-07-16T16:32:41.066016,15.27585649,.0002553,43.0064,305.6265,289.8229,70.2348,0,U,67504,999,2749,.2844E-3,.7573E-4,0
STARLINK-36545,2026-012N,2026-07-16T16:27:07.612992,15.27592759,.0001844,43.0022,305.5934,293.3555,66.7102,0,U,67505,999,2749,.3955E-3,.10641E-3,0
STARLINK-36553,2026-012P,2026-07-16T08:30:47.129760,15.27572828,.0001862,43.0010,307.4069,285.1867,74.8779,0,U,67506,999,2744,.22899E-3,.6043E-4,0
