STARLINK-36520          
1 67466U 26008X   26197.34021565  .00005687  00000+0  21594-3 0  9995
2 67466  43.0004 199.0210 0001624 280.8247  79.2422 15.27594743 29248
STARLINK-36425          
1 67467U 26008Y   26197.46456328  .00007370  00000+0  27699-3 0  9991
2 67467  43.0008 198.2431 0001504 268.4239  91.6440 15.27588195 29263
STARLINK-36414          
1 67468U 26008Z   26197.35805965  .00005365  00000+0  20432-3 0  9995
2 67468  42.9983 198.2749 0001121 280.0198  80.0527 15.27580592 29255
STARLINK-36441          
1 67469U 26008AA  26197.33764376  .00008883  00000+0  33185-3 0  9991
2 67469  43.0000 198.9937 0002029 285.7314  74.3314 15.27590331 29245
STARLINK-36454          
1 67470U 26008AB  26197.49654546  .00006679  00000+0  25201-3 0  9998
2 67470  42.9989 197.5950 0001287 272.1048  87.9656 15.27580254 29275
STARLINK-36334          
1 67471U 26008AC  26197.27868220  .00008322  00000+0  31153-3 0  9991
2 67471  42.9999 199.4056 0002100 283.6402  76.4216 15.27588095 29233
STARLINK-36269          
1 67472U 26008AD  26197.39531876  .00007385  00000+0  27754-3 0  9999
2 67472  43.0026 198.5647 0002174 288.9202  71.1414 15.27590253 29253
STARLINK-36408          
1 67473U 26008AE  26197.06067827  .00008107  00000+0  30374-3 0  9999
2 67473  42.9998 200.3468 0001098 266.3338  93.7388 15.27585404 29204
ALSAT-3A                
1 67474U 26009A   26197.81524442  .00002902  00000+0  12582-3 0  9993
2 67474  97.4534 271.4933 0010294  15.6524 344.5029 15.23128879 27787
TIANQI-37               
1 67476U 26010A   26197.66607847  .00000001  00000+0  88592-4 0  9994
2 67476  44.9831 310.5759 0011207 111.0696 249.1335 13.99174707 25525
TIANQI-38               
1 67477U 26010B   26197.79147029  .00000011  00000+0  95635-4 0  9997
2 67477  44.9794 309.7829 0010008 119.6850 240.4980 13.99170256 25543
TIANQI-39               
1 67478U 26010C   26197.63231699  .00000003  00000+0  90302-4 0  9995
2 67478  44.9806 306.6678 0013784 134.2364 225.9603 13.99221061 25577
TIANQI-40               
1 67479U 26010D   26197.61325624 -.00000006  00000+0  84295-4 0  9994
2 67479  44.9840 311.0154 0010099 125.6474 234.5300 13.99157418 25515
SZ-20 MODULE            
1 67481U 25082C   26197.85252715  .00018271  00000+0  14639-3 0  9997
2 67481  41.4764 133.3475 0013387 219.8065 140.1796 15.70489826297896
2025-313BE              
1 67482U 25313BE  26197.18395609  .00165046  00000+0  18744-2 0  9994
2 67482  97.3838 275.7003 0011794 224.4296 135.6016 15.61714418 27786
ION SCV-021             
1 67483U 25276DT  26197.64446325  .00000183  00000+0  20431-4 0  9994
2 67483  97.5233 267.0203 0011765  28.1187 332.0669 14.97610969 27017
STARLINK-36551          
1 67493U 26012A   26197.60613437  .00008041  00000+0  30134-3 0  9991
2 67493  43.0018 306.7321 0001427 290.3566  69.7133 15.27589395 27477
STARLINK-36396          
1 67494U 26012B   26197.32529882  .00010374  00000+0  38554-3 0  9997
2 67494  43.0015 308.0851 0001568 288.9202  71.1479 15.27616376 27430
STARLINK-36550          
1 67495U 26012C   26197.66380959  .00005968  00000+0  22611-3 0  9995
2 67495  43.0020 306.3092 0001583 272.4907  87.5763 15.27596313 27482
STARLINK-36534          
1 67496U 26012D   26197.65738328  .00009518  00000+0  35480-3 0  9995
2 67496  43.0014 306.2555 0001647 267.2202  92.8461 15.27593530 27482
STARLINK-36555          
1 67497U 26012E   26197.65995322  .00008635  00000+0  32282-3 0  9991
2 67497  43.0007 306.2728 0001716 270.2244  89.8411 15.27593010 27488
STARLINK-36081          
1 67498U 26012F   26197.32660000  .00004670  00000+0  17908-3 0  9991
2 67498  42.9950 308.0729 0001218 258.9742 101.0972 15.27583403 27437
STARLINK-36558          
1 67499U 26012G   26197.64967554  .00010319  00000+0  38379-3 0  9993
2 67499  43.0009 306.2062 0002028 283.6705  76.3921 15.27594864 27485
STARLINK-36557          
1 67500U 26012H   26197.64581514  .00006479  00000+0  24458-3 0  9999
2 67500  43.0000 306.1616 0002310 267.1879  92.8708 15.27602815 27488
STARLINK-36433          
1 67501U 26012J   26197.64196419  .00008760  00000+0  32733-3 0  9996
2 67501  43.0022 306.1335 0001535 266.5047  93.5629 15.27593395 27481
STARLINK-36554          
1 67502U 26012K   26197.63553833  .00009700  00000+0  36142-3 0  9996
2 67502  43.0018 306.0839 0002321 276.5989  83.4599 15.27590625 27482
STARLINK-36552          
1 67503U 26012L   26197.76245441  .00010931  00000+0  40586-3 0  9999
2 67503  43.0069 305.3187 0003906 303.9462  56.1018 15.27600550 27503
STARLINK-36512          
1 67504U 26012M   26197.68936419  .00007573  00000+0  28440-3 0  9996
2 67504  43.0064 305.6265 0002553 289.8229  70.2348 15.27585649 27491
STARLINK-36545          
1 67505U 26012N   26197.68550478  .00010641  00000+0  39550-3 0  9998
2 67505  43.0022 305.5934 0001844 293.3555  66.7102 15.27592759 27490
STARLINK-36553          
1 67506U 26012P   26197.35471215  .00006043  00000+0  22899-3 0  9993
2 67506  43.0010 307.4069 0001862 285.1867  74.8779 15.27572828 27443
